QIANFAN-65              
1 62795U 25016L   25288.58989109  .00000089  00000+0  11836-3 0  9995
2 62795  88.9722 109.0760 0014806 145.5387 214.6727 13.50972083 39393
QIANFAN-66              
1 62796U 25016M   25284.76742828  .00000126  00000+0  17597-3 0  9999
2 62796  88.9747 109.4302 0015725 152.1511 208.0485 13.50966984 38920
QIANFAN-67              
1 62797U 25016N   25288.62279027  .00000083  00000+0  11045-3 0  9999
2 62797  88.9735 109.0627 0015829 148.2006 212.0104 13.50968832 39416
QIANFAN-68              
1 62798U 25016P   25288.61458744  .00000098  00000+0  13336-3 0  9995
2 62798  88.9736 109.1066 0015933 146.5805 213.6355 13.50971209 39394
QIANFAN-69              
1 62799U 25016Q   25288.63108041  .00000078  00000+0  10154-3 0  9993
2 62799  88.9715 108.9868 0016653 147.7814 212.4358 13.50968651 39434
QIANFAN-70              
1 62800U 25016R   25286.57358218 -.00000167  00000+0 -27734-3 0  9993
2 62800  88.9740 109.3259 0016256 144.3136 215.9105 13.50972411 39115
QIANFAN-71              
1 62801U 25016S   25288.64338302  .00000097  00000+0  13135-3 0  9996
2 62801  88.9730 109.0947 0016493 151.0738 209.1330 13.50972406 39391
QIANFAN-72              
1 62802U 25016T   25274.29087208  .00000084  00000+0  11481-3 0  9997
2 62802  88.9730 110.6012 0018440 200.3911 159.6505 13.49486897 37447
